ORBCOMM FM24            
1 25478U 98053D   25365.14497169  .00002085  00000+0  71905-3 0  9992
2 25478  45.0086  54.8316 0002467 195.6018 164.4755 14.38710332425800
ORBCOMM FM25            
1 25479U 98053E   25365.18986387  .00002539  00000+0  86622-3 0  9998
2 25479  45.0071  52.9199 0004726 181.5942 178.4892 14.38680035426100
ORBCOMM FM26            
1 25480U 98053F   25365.12742065  .00001798  00000+0  63982-3 0  9997
2 25480  45.0075  51.1540 0006891 188.4642 171.6090 14.37642748425983
ORBCOMM FM27            
1 25481U 98053G   25365.10360435  .00002238  00000+0  76850-3 0  9991
2 25481  45.0061  53.4559 0002239 232.7098 127.3546 14.38715099426025
ORBCOMM FM28            
1 25482U 98053H   25365.05003375  .00001985  00000+0  68498-3 0  9990
2 25482  45.0070 350.9713 0005310 232.7791 127.2573 14.38836650426707
ORBCOMM FM30            
1 25980U 99065A   25365.09484189  .00001387  00000+0  50288-3 0  9991
2 25980  45.0302 237.3533 0006265 284.1316  75.8837 14.37805125362780
ORBCOMM FM31            
1 25981U 99065B   25365.00790536  .00001292  00000+0  47224-3 0  9990
2 25981  45.0214 231.2157 0004060 313.5506  46.5004 14.37731090362327
ORBCOMM FM32            
1 25982U 99065C   25365.11475084  .00001433  00000+0  52860-3 0  9990
2 25982  45.0145 248.6037 0006558 305.8258  54.1980 14.36791632362912
