<?xml version="1.0" encoding="UTF-8"?>
<ndm xmlns:xsi="http://www.w3.org/2001/XMLSchema-instance" xsi:noNamespaceSchemaLocation="https://sanaregistry.org/r/ndmxml_unqualified/ndmxml-2.0.0-master-2.0.xsd">
<omm id="CCSDS_OMM_VERS" version="2.0">
<header><CREATION_DATE/><ORIGINATOR/></header><body><segment><metadata><OBJECT_NAME>ORBCOMM FM24</OBJECT_NAME><OBJECT_ID>1998-053D</OBJECT_ID><CENTER_NAME>EARTH</CENTER_NAME><REF_FRAME>TEME</REF_FRAME><TIME_SYSTEM>UTC</TIME_SYSTEM><MEAN_ELEMENT_THEORY>SGP4</MEAN_ELEMENT_THEORY></metadata><data><meanElements><EPOCH>2025-12-31T03:28:45.554016</EPOCH><MEAN_MOTION>14.38710332</MEAN_MOTION><ECCENTRICITY>.0002467</ECCENTRICITY><INCLINATION>45.0086</INCLINATION><RA_OF_ASC_NODE>54.8316</RA_OF_ASC_NODE><ARG_OF_PERICENTER>195.6018</ARG_OF_PERICENTER><MEAN_ANOMALY>164.4755</MEAN_ANOMALY></meanElements><tleParameters><EPHEMERIS_TYPE>0</EPHEMERIS_TYPE><CLASSIFICATION_TYPE>U</CLASSIFICATION_TYPE><NORAD_CAT_ID>25478</NORAD_CAT_ID><ELEMENT_SET_NO>999</ELEMENT_SET_NO><REV_AT_EPOCH>42580</REV_AT_EPOCH><BSTAR>.71905E-3</BSTAR><MEAN_MOTION_DOT>.2085E-4</MEAN_MOTION_DOT><MEAN_MOTION_DDOT>0</MEAN_MOTION_DDOT></tleParameters></data></segment></body></omm>
<omm id="CCSDS_OMM_VERS" version="2.0">
<header><CREATION_DATE/><ORIGINATOR/></header><body><segment><metadata><OBJECT_NAME>ORBCOMM FM25</OBJECT_NAME><OBJECT_ID>1998-053E</OBJECT_ID><CENTER_NAME>EARTH</CENTER_NAME><REF_FRAME>TEME</REF_FRAME><TIME_SYSTEM>UTC</TIME_SYSTEM><MEAN_ELEMENT_THEORY>SGP4</MEAN_ELEMENT_THEORY></metadata><data><meanElements><EPOCH>2025-12-31T04:33:24.238368</EPOCH><MEAN_MOTION>14.38680035</MEAN_MOTION><ECCENTRICITY>.0004726</ECCENTRICITY><INCLINATION>45.0071</INCLINATION><RA_OF_ASC_NODE>52.9199</RA_OF_ASC_NODE><ARG_OF_PERICENTER>181.5942</ARG_OF_PERICENTER><MEAN_ANOMALY>178.4892</MEAN_ANOMALY></meanElements><tleParameters><EPHEMERIS_TYPE>0</EPHEMERIS_TYPE><CLASSIFICATION_TYPE>U</CLASSIFICATION_TYPE><NORAD_CAT_ID>25479</NORAD_CAT_ID><ELEMENT_SET_NO>999</ELEMENT_SET_NO><REV_AT_EPOCH>42610</REV_AT_EPOCH><BSTAR>.86622E-3</BSTAR><MEAN_MOTION_DOT>.2539E-4</MEAN_MOTION_DOT><MEAN_MOTION_DDOT>0</MEAN_MOTION_DDOT></tleParameters></data></segment></body></omm>
<omm id="CCSDS_OMM_VERS" version="2.0">
<header><CREATION_DATE/><ORIGINATOR/></header><body><segment><metadata><OBJECT_NAME>ORBCOMM FM26</OBJECT_NAME><OBJECT_ID>1998-053F</OBJECT_ID><CENTER_NAME>EARTH</CENTER_NAME><REF_FRAME>TEME</REF_FRAME><TIME_SYSTEM>UTC</TIME_SYSTEM><MEAN_ELEMENT_THEORY>SGP4</MEAN_ELEMENT_THEORY></metadata><data><meanElements><EPOCH>2025-12-31T03:03:29.144160</EPOCH><MEAN_MOTION>14.37642748</MEAN_MOTION><ECCENTRICITY>.0006891</ECCENTRICITY><INCLINATION>45.0075</INCLINATION><RA_OF_ASC_NODE>51.1540</RA_OF_ASC_NODE><ARG_OF_PERICENTER>188.4642</ARG_OF_PERICENTER><MEAN_ANOMALY>171.6090</MEAN_ANOMALY></meanElements><tleParameters><EPHEMERIS_TYPE>0</EPHEMERIS_TYPE><CLASSIFICATION_TYPE>U</CLASSIFICATION_TYPE><NORAD_CAT_ID>25480</NORAD_CAT_ID><ELEMENT_SET_NO>999</ELEMENT_SET_NO><REV_AT_EPOCH>42598</REV_AT_EPOCH><BSTAR>.63982E-3</BSTAR><MEAN_MOTION_DOT>.1798E-4</MEAN_MOTION_DOT><MEAN_MOTION_DDOT>0</MEAN_MOTION_DDOT></tleParameters></data></segment></body></omm>
<omm id="CCSDS_OMM_VERS" version="2.0">
<header><CREATION_DATE/><ORIGINATOR/></header><body><segment><metadata><OBJECT_NAME>ORBCOMM FM27</OBJECT_NAME><OBJECT_ID>1998-053G</OBJECT_ID><CENTER_NAME>EARTH</CENTER_NAME><REF_FRAME>TEME</REF_FRAME><TIME_SYSTEM>UTC</TIME_SYSTEM><MEAN_ELEMENT_THEORY>SGP4</MEAN_ELEMENT_THEORY></metadata><data><meanElements><EPOCH>2025-12-31T02:29:11.415840</EPOCH><MEAN_MOTION>14.38715099</MEAN_MOTION><ECCENTRICITY>.0002239</ECCENTRICITY><INCLINATION>45.0061</INCLINATION><RA_OF_ASC_NODE>53.4559</RA_OF_ASC_NODE><ARG_OF_PERICENTER>232.7098</ARG_OF_PERICENTER><MEAN_ANOMALY>127.3546</MEAN_ANOMALY></meanElements><tleParameters><EPHEMERIS_TYPE>0</EPHEMERIS_TYPE><CLASSIFICATION_TYPE>U</CLASSIFICATION_TYPE><NORAD_CAT_ID>25481</NORAD_CAT_ID><ELEMENT_SET_NO>999</ELEMENT_SET_NO><REV_AT_EPOCH>42602</REV_AT_EPOCH><BSTAR>.7685E-3</BSTAR><MEAN_MOTION_DOT>.2238E-4</MEAN_MOTION_DOT><MEAN_MOTION_DDOT>0</MEAN_MOTION_DDOT></tleParameters></data></segment></body></omm>
<omm id="CCSDS_OMM_VERS" version="2.0">
<header><CREATION_DATE/><ORIGINATOR/></header><body><segment><metadata><OBJECT_NAME>ORBCOMM FM28</OBJECT_NAME><OBJECT_ID>1998-053H</OBJECT_ID><CENTER_NAME>EARTH</CENTER_NAME><REF_FRAME>TEME</REF_FRAME><TIME_SYSTEM>UTC</TIME_SYSTEM><MEAN_ELEMENT_THEORY>SGP4</MEAN_ELEMENT_THEORY></metadata><data><meanElements><EPOCH>2025-12-31T01:12:02.916000</EPOCH><MEAN_MOTION>14.38836650</MEAN_MOTION><ECCENTRICITY>.000531</ECCENTRICITY><INCLINATION>45.0070</INCLINATION><RA_OF_ASC_NODE>350.9713</RA_OF_ASC_NODE><ARG_OF_PERICENTER>232.7791</ARG_OF_PERICENTER><MEAN_ANOMALY>127.2573</MEAN_ANOMALY></meanElements><tleParameters><EPHEMERIS_TYPE>0</EPHEMERIS_TYPE><CLASSIFICATION_TYPE>U</CLASSIFICATION_TYPE><NORAD_CAT_ID>25482</NORAD_CAT_ID><ELEMENT_SET_NO>999</ELEMENT_SET_NO><REV_AT_EPOCH>42670</REV_AT_EPOCH><BSTAR>.68498E-3</BSTAR><MEAN_MOTION_DOT>.1985E-4</MEAN_MOTION_DOT><MEAN_MOTION_DDOT>0</MEAN_MOTION_DDOT></tleParameters></data></segment></body></omm>
<omm id="CCSDS_OMM_VERS" version="2.0">
<header><CREATION_DATE/><ORIGINATOR/></header><body><segment><metadata><OBJECT_NAME>ORBCOMM FM30</OBJECT_NAME><OBJECT_ID>1999-065A</OBJECT_ID><CENTER_NAME>EARTH</CENTER_NAME><REF_FRAME>TEME</REF_FRAME><TIME_SYSTEM>UTC</TIME_SYSTEM><MEAN_ELEMENT_THEORY>SGP4</MEAN_ELEMENT_THEORY></metadata><data><meanElements><EPOCH>2025-12-31T02:16:34.339296</EPOCH><MEAN_MOTION>14.37805125</MEAN_MOTION><ECCENTRICITY>.0006265</ECCENTRICITY><INCLINATION>45.0302</INCLINATION><RA_OF_ASC_NODE>237.3533</RA_OF_ASC_NODE><ARG_OF_PERICENTER>284.1316</ARG_OF_PERICENTER><MEAN_ANOMALY>75.8837</MEAN_ANOMALY></meanElements><tleParameters><EPHEMERIS_TYPE>0</EPHEMERIS_TYPE><CLASSIFICATION_TYPE>U</CLASSIFICATION_TYPE><NORAD_CAT_ID>25980</NORAD_CAT_ID><ELEMENT_SET_NO>999</ELEMENT_SET_NO><REV_AT_EPOCH>36278</REV_AT_EPOCH><BSTAR>.50288E-3</BSTAR><MEAN_MOTION_DOT>.1387E-4</MEAN_MOTION_DOT><MEAN_MOTION_DDOT>0</MEAN_MOTION_DDOT></tleParameters></data></segment></body></omm>
<omm id="CCSDS_OMM_VERS" version="2.0">
<header><CREATION_DATE/><ORIGINATOR/></header><body><segment><metadata><OBJECT_NAME>ORBCOMM FM31</OBJECT_NAME><OBJECT_ID>1999-065B</OBJECT_ID><CENTER_NAME>EARTH</CENTER_NAME><REF_FRAME>TEME</REF_FRAME><TIME_SYSTEM>UTC</TIME_SYSTEM><MEAN_ELEMENT_THEORY>SGP4</MEAN_ELEMENT_THEORY></metadata><data><meanElements><EPOCH>2025-12-31T00:11:23.023104</EPOCH><MEAN_MOTION>14.37731090</MEAN_MOTION><ECCENTRICITY>.000406</ECCENTRICITY><INCLINATION>45.0214</INCLINATION><RA_OF_ASC_NODE>231.2157</RA_OF_ASC_NODE><ARG_OF_PERICENTER>313.5506</ARG_OF_PERICENTER><MEAN_ANOMALY>46.5004</MEAN_ANOMALY></meanElements><tleParameters><EPHEMERIS_TYPE>0</EPHEMERIS_TYPE><CLASSIFICATION_TYPE>U</CLASSIFICATION_TYPE><NORAD_CAT_ID>25981</NORAD_CAT_ID><ELEMENT_SET_NO>999</ELEMENT_SET_NO><REV_AT_EPOCH>36232</REV_AT_EPOCH><BSTAR>.47224E-3</BSTAR><MEAN_MOTION_DOT>.1292E-4</MEAN_MOTION_DOT><MEAN_MOTION_DDOT>0</MEAN_MOTION_DDOT></tleParameters></data></segment></body></omm>
<omm id="CCSDS_OMM_VERS" version="2.0">
<header><CREATION_DATE/><ORIGINATOR/></header><body><segment><metadata><OBJECT_NAME>ORBCOMM FM32</OBJECT_NAME><OBJECT_ID>1999-065C</OBJECT_ID><CENTER_NAME>EARTH</CENTER_NAME><REF_FRAME>TEME</REF_FRAME><TIME_SYSTEM>UTC</TIME_SYSTEM><MEAN_ELEMENT_THEORY>SGP4</MEAN_ELEMENT_THEORY></metadata><data><meanElements><EPOCH>2025-12-31T02:45:14.472576</EPOCH><MEAN_MOTION>14.36791632</MEAN_MOTION><ECCENTRICITY>.0006558</ECCENTRICITY><INCLINATION>45.0145</INCLINATION><RA_OF_ASC_NODE>248.6037</RA_OF_ASC_NODE><ARG_OF_PERICENTER>305.8258</ARG_OF_PERICENTER><MEAN_ANOMALY>54.1980</MEAN_ANOMALY></meanElements><tleParameters><EPHEMERIS_TYPE>0</EPHEMERIS_TYPE><CLASSIFICATION_TYPE>U</CLASSIFICATION_TYPE><NORAD_CAT_ID>25982</NORAD_CAT_ID><ELEMENT_SET_NO>999</ELEMENT_SET_NO><REV_AT_EPOCH>36291</REV_AT_EPOCH><BSTAR>.5286E-3</BSTAR><MEAN_MOTION_DOT>.1433E-4</MEAN_MOTION_DOT><MEAN_MOTION_DDOT>0</MEAN_MOTION_DDOT></tleParameters></data></segment></body></omm>

</ndm>
